id,name,address,zipcode,city,country,effectiveDate
1,MacKensie Rowland,877-1796 Mattis Ave,6146,Windermere,Indonesia,13-07-2022
2,Hayes Jennings,Ap #579-2185 Sed Street,NX1 5QR,Hà Tĩnh,United Kingdom,10-10-2021
3,Germaine Hopper,Ap #579-2185 Sed Street,6364,Soledad,Spain,13-01-2022
4,Hall Mayer,Ap #579-2185 Sed Street,23072,Vetlanda,Sweden,13-11-2020
5,Rina Ferrell,Ap #460-3199 Aliquet Avenue,21236,Barranca,Turkey,03-11-2021
6,Zachery Byrd,575-1948 Neque Road,63856,Sudhanoti,Ireland,23-08-2022
7,Amanda Frye,Ap #721-6862 Ac Ave,L9 7KY,Saltillo,Chile,05-10-2022
8,Joel Mcdowell,585-2488 Phasellus Ave,21-354,Icheon,Chile,03-01-2021
9,Urielle Briggs,7224 Maecenas St.,52271,Pondicherry,Belgium,29-08-2021
10,Kirk Baker,Ap #579-2185 Sed Street,965474,Avesta,Australia,07-09-2022
11,Abigail Hale,Ap #332-4957 Sed St.,2736,Märsta,New Zealand,12-05-2022
12,Tucker Russo,Ap #579-2185 Sed Street,5488 CT,Mataró,United Kingdom,17-03-2021
13,Athena Hardin,632-7002 Erat Street,M6Z 2QJ,Jamshoro,Sweden,08-04-2022
14,Pearl Ward,401-3122 Aliquam Av.,4449,Elbistan,Spain,02-01-2021
15,Quentin Welch,1663 Pellentesque Avenue,20413,Konin,Turkey,20-06-2021
16,Aretha Nielsen,Ap #978-9169 Sed Av.,2194,Hamburg,Mexico,20-05-2021
17,Faith Porter,Ap #161-5419 Maecenas St.,64-228,Melton Mowbray,Peru,29-01-2022
18,Cheryl Stafford,Ap #867-4851 Eu St.,26155,Poitiers,Costa Rica,01-07-2022
19,Alden Harper,Ap #579-2185 Sed Street,94671-72608,Châtellerault,Nigeria,06-12-2020
20,Macon Allen,581-3854 Nibh Ave,11404,Mamuju,Peru,28-05-2022
21,Desirae Morin,Ap #675-9646 Ridiculus Avenue,22382,Bergen op Zoom,New Zealand,30-01-2021
22,Cole Pacheco,Ap #579-2185 Sed Street,Y2N 7Z9,Reus,Chile,27-07-2022
23,Alfonso Fowler,733-5159 Gravida Avenue,565257,Celle,Belgium,09-04-2021
24,Brendan Garner,5563 Nascetur Rd.,4034,Jiutepec,Sweden,13-01-2022
25,Anne Roy,5548 Erat. Avenue,44216,Utrecht,Costa Rica,17-04-2022
26,Ulysses Dillard,1318 Tempor Rd.,S5J 6Z2,Tuscaloosa,United States,11-10-2020
27,Jerome Hines,598-974 Convallis Av.,10783,Tharparkar,Colombia,15-01-2021
28,Shaine Puckett,Ap #579-2185 Sed Street,85629,Cochrane,Poland,07-12-2020
29,Tana Meadows,Ap #579-2185 Sed Street,6465,Cheonan,Australia,19-09-2022
30,Genevieve Cummings,116-2720 Nulla Avenue,61-479,Sint-Pieters-Kapelle,United States,11-05-2021
31,Azalia Hudson,134-3498 Ridiculus Street,465223,Esen,United Kingdom,17-03-2022
32,Cairo Joseph,Ap #579-2185 Sed Street,71981,Ipís,Mexico,22-08-2022
33,Alexander Becker,Ap #631-7469 Curae St.,29941,Anseong,United States,04-11-2020
34,Neville Rosa,361-8594 Curabitur Av.,81919-62612,Criciúma,Pakistan,05-04-2021
35,Haviva Warner,902 Nullam St.,69136,Tulita,Austria,01-07-2021
36,Hop Chavez,3291 Malesuada Rd.,3551,São José dos Pinhais,Brazil,05-09-2022
37,Vanna Vazquez,3952 Eleifend Rd.,5314,Hoogeveen,Sweden,18-02-2022
38,Whilemina Robertson,Ap #211-5841 Quam St.,7351,Cork,Brazil,29-08-2022
39,Hedda Payne,1231 Nisl Rd.,22934,Mérida,Colombia,14-07-2021
40,Yetta Johnson,831-5819 Neque. Rd.,44802,Siquirres,Costa Rica,30-09-2022
41,Nasim Estrada,Ap #930-1432 Quisque Rd.,318858,Ferrandina,Nigeria,25-04-2021
42,Steel Ruiz,747-9558 Dignissim Ave,7550,Fallo,New Zealand,18-11-2020
43,Adria Mathews,Ap #579-2185 Sed Street,5452,Dosquebradas,Russian Federation,03-11-2021
44,Brynn Burton,Ap #933-7313 Semper Rd.,48273-620,Bajaur Agency,Germany,06-09-2022
45,Vincent Blanchard,919-7137 A Ave,379856,Ede,Mexico,15-08-2021
46,Ebony Tucker,Ap #755-6388 Donec Rd.,51561,Pelarco,Nigeria,28-12-2021
47,Irene Glass,Ap #617-121 Tellus St.,779375,Bhusawal,Ireland,16-02-2021
48,Acton Roach,Ap #438-8679 Suspendisse Road,34924,Palembang,Pakistan,25-07-2022
49,Porter Morrison,9797 Ultrices Av.,G4K 6J6,Serang,New Zealand,07-12-2020
50,Jack Bradley,364-3735 Donec Road,37521,Peshawar,Germany,22-05-2021
51,Lila Whitfield,Ap #610-3166 Et St.,69151,Piura,Mexico,30-10-2021
52,Chadwick Ward,"P.O. Box 221, 1718 Sociis Rd.",967623,Combarbalá,Brazil,29-08-2022
53,Steven Keith,"P.O. Box 221, 1718 Sociis Rd.",4173,Laon,France,18-05-2022
54,Yuli Ramos,792-3702 Nunc Rd.,843364,İnegöl,Vietnam,30-05-2022
55,Regina Bonner,6517 Lorem Av.,817207,Westport,South Korea,21-07-2021
56,Akeem Walls,622-8500 Metus Ave,CM9X 2WU,Bourges,United Kingdom,27-08-2022
57,Yoko Merrill,"P.O. Box 221, 1718 Sociis Rd.",23987,Oamaru,Indonesia,11-05-2022
58,Howard Johnson,1511 Scelerisque Rd.,74765-883,Berlin,New Zealand,20-12-2021
59,Coby Blackwell,311-203 Ipsum St.,249414,Belfast,Mexico,13-01-2021
60,Myles Harrison,"P.O. Box 221, 1718 Sociis Rd.",43373,Liberia,Spain,25-06-2021
61,Gil Petty,730-4851 Varius. Avenue,17634,Moncton,Brazil,21-07-2022
62,Chase Wells,"P.O. Box 221, 1718 Sociis Rd.",4965,Buren,Australia,09-08-2021
63,Alisa Reeves,626-2433 Diam Av.,76870,Tula,Nigeria,30-05-2021
64,Diana Snow,"P.O. Box 221, 1718 Sociis Rd.",427248,Austin,Indonesia,07-04-2021
65,Alyssa Alvarez,708-5793 Aliquam St.,478405,Chancay,Chile,22-07-2021
66,Violet Harding,"P.O. Box 221, 1718 Sociis Rd.",3353,Nashik,Brazil,03-03-2021
67,Cameran Chapman,Ap #788-7817 Nullam Street,8033 DT,Motueka,Turkey,28-05-2022
68,Ignatius Whitfield,738-6191 Est Av.,5414,Woerden,New Zealand,22-01-2022
69,Tiger Sparks,Ap #183-5661 Cras Rd.,1555 GY,Orenburg,Spain,16-03-2021
70,Tamara Foreman,153-5690 Ac Rd.,8723,Queenstown,Ireland,31-05-2021
71,Gary Avila,"P.O. Box 221, 1718 Sociis Rd.",856505,Chambave,Canada,20-12-2020
72,Otto Berry,6717 Pellentesque Av.,26754,Aguazul,Italy,06-03-2021
73,Felicia Solis,8854 Leo. St.,25961,San Isidro,Poland,09-11-2021
74,Ira Conley,"P.O. Box 221, 1718 Sociis Rd.",10711,Leernes,Peru,19-02-2022
75,Aline Acevedo,"P.O. Box 221, 1718 Sociis Rd.",5141,Nizip,Peru,26-10-2021
76,Stacy Lloyd,5985 Elit. St.,51719,Marcq-en-Baroeul,Pakistan,11-12-2021
77,Mariam Levine,547-4484 Ligula. St.,9178 BR,Pachuca,Italy,22-11-2021
78,Althea Murray,146-3546 Nec Av.,5798,Osnabrück,Italy,21-05-2022
79,Autumn Hardy,Ap #834-2481 Parturient St.,758832,Dutse,Indonesia,19-09-2021
80,Zorita Herrera,669-1342 Massa. Rd.,21179,Blieskastel,Brazil,08-08-2022
81,Lance Franks,"P.O. Box 221, 1718 Sociis Rd.",2212,Abeokuta,Mexico,26-07-2022
82,Hedwig Bishop,"P.O. Box 221, 1718 Sociis Rd.",74787-372,Belfort,United States,26-10-2021
83,Lars Lopez,"P.O. Box 221, 1718 Sociis Rd.",7533,Stratford,India,10-09-2021
84,Cody Huffman,Ap #975-1033 Eget Ave,142411,Quemchi,France,26-11-2021
85,Lamar Russell,"P.O. Box 221, 1718 Sociis Rd.",41367,Adana,France,29-08-2022
86,Olivia Drake,Ap #653-2738 Arcu Ave,7663,Bunbury,Netherlands,24-10-2021
87,Dustin Cantrell,302-5659 Sit St.,3196,Mount Isa,India,12-11-2020
88,Galvin Garcia,233-5866 Aptent Av.,3812 VX,Piotrków Trybunalski,Ireland,16-08-2021
89,Henry Fry,411-9419 Eu Ave,68728,Gölcük,Germany,22-04-2021
90,Clio Schultz,"P.O. Box 221, 1718 Sociis Rd.",50219,Coronel,Italy,23-08-2022
91,Amber Guerrero,7303 Aliquam Street,4686,Bromyard,Colombia,23-03-2021
92,Callum Mckee,431-2906 Massa Street,20811,San Juan (San Juan de Tibás],Ireland,16-10-2021
93,Rajah Stanton,8257 Morbi Av.,754194,Jönköping,Vietnam,22-01-2022
94,Jasper Lancaster,506 Ipsum Ave,75-174,María Elena,Spain,03-08-2021
95,Paki Shields,346-8492 In Rd.,41802,Inírida,Italy,22-11-2021
96,Carol Castro,"P.O. Box 221, 1718 Sociis Rd.",14577,Delicias,Ireland,08-09-2021
97,Jaime Weber,478-1100 Tellus. Rd.,7670,Cheyenne,Poland,13-12-2021
98,Carlos Browning,Ap #649-5696 Sed Road,51907,Weiz,Germany,24-07-2022
99,Roth Trujillo,"P.O. Box 221, 1718 Sociis Rd.",456787,Galway,Austria,10-08-2022
100,Vance Palmer,"P.O. Box 221, 1718 Sociis Rd.",525734,Camarones,Poland,23-01-2021
