id,name,address,zipcode,city,country,effectiveDate
1,Velma Bowen,Ap #207-1352 Nisi. Street,297243,Kırıkhan,Colombia,09-09-2022
2,Brandon Christian,476-5064 Suspendisse Rd.,93-765,Broxburn,Russian Federation,28-11-2020
3,Kimberley Perkins,467-8297 Enim,889119,Owerri,South Korea,21-08-2021
4,Robin Hartman,960-7120 Lectus Rd.,833082,Fundación,Peru,26-01-2021
5,Sonia Shepherd,467-8297 Enim,7077 VL,Tregaron,Colombia,31-12-2020
6,Shellie Newman,Ap #424-5178 Fusce Rd.,31758-32621,Cambridge,Canada,12-09-2021
7,Jacqueline Parks,9775 Natoque St.,6764,Badajoz,South Korea,28-11-2021
8,Genevieve Leonard,776-6460 Nibh. Rd.,36007,Port Lincoln,Vietnam,28-12-2020
9,Keefe Stokes,Ap #359-5092 Penatibus Street,55895,Auckland,South Korea,17-11-2021
10,Jin Terry,467-8297 Enim,35633573,Balıkesir,Nigeria,06-11-2020
11,Bevis Wright,Ap #675-313 Morbi St.,70584,Tire,Chile,28-04-2021
12,Akeem Bolton,Ap #852-9005 Sed Street,01550-24254,Turgutlu,India,19-07-2022
13,Chandler Melton,467-8297 Enim,99883,Jayapura,Russian Federation,16-08-2021
14,Leo Mcleod,467-8297 Enim,39153,Borås,Germany,16-10-2020
15,Rosalyn Lindsey,7791 In Rd.,471413,Huesca,Pakistan,22-11-2021
16,Yoshi Spence,752-979 Magnis Road,50113,Guadalupe,New Zealand,05-08-2022
17,Oliver Stephenson,226-6618 Dictum Street,96611-14762,Bremen,India,30-12-2021
18,Davis Wynn,467-8297 Enim,55887,O'Higgins,Belgium,08-09-2022
19,Alvin Hartman,Ap #836-7576 Leo. Rd.,1925,Seoul,India,23-05-2022
20,Naida Mejia,Ap #157-2739 Dignissim Road,26802,Nghĩa Lộ,Chile,08-07-2022
21,Bradley Welch,612-1600 Dolor Avenue,42188,Guna,Italy,17-09-2021
22,Zachery Wallace,1292 Fames Rd.,30356,Galway,Spain,24-06-2022
23,Clarke Watson,Ap #800-289 Quisque Road,5314,Reyhanlı,Belgium,26-11-2021
24,Florence Landry,Ap #457-3976 Turpis. St.,725475,Pohang,Australia,27-03-2021
25,Emi Christensen,Ap #574-1699 Nec Avenue,66662,Máfil,Indonesia,02-03-2022
26,Gisela Preston,323-8572 Pharetra. Road,7971,Nässjö,Nigeria,13-03-2022
27,Lisandra Calhoun,467-8297 Enim,34352,Medio Atrato,United Kingdom,07-06-2022
28,Damon Parsons,658-7659 Interdum St.,746889,Nässjö,Ireland,11-10-2020
29,Darius Cole,Ap #412-3424 Eu St.,12178,Birecik,New Zealand,30-01-2021
30,Victoria Melton,Ap #111-7065 Nam St.,6796 HU,Rostov,Indonesia,12-04-2022
31,Olga Ramsey,467-8297 Enim,O1N 1T2,Bandar Lampung,United Kingdom,21-03-2021
32,Reese Carver,Ap #397-127 Tortor. Av.,176583,Stralsund,Brazil,10-02-2021
33,Cody Alvarado,503-3360 Mattis St.,66750,Campina Grande,Turkey,22-03-2021
34,Rae Walter,656-9008 Felis. Avenue,52946,Poza Rica,India,06-03-2021
35,Cooper Maxwell,416-9145 Feugiat Av.,41307,Bandung,Netherlands,08-06-2021
36,Fletcher Hogan,1631 Suspendisse St.,73-797,Timaru,Belgium,04-12-2021
37,Reed Daniel,640-3676 Feugiat Ave,46544,Miryang,Turkey,27-04-2022
38,Azalia Atkins,467-8297 Enim,2179 XA,Pau,Russian Federation,29-01-2022
39,Meredith Brown,539-4843 Donec Street,879838,Agartala,Ireland,26-08-2021
40,Urielle Houston,593-6396 Purus. Avenue,81-941,Singkawang,United Kingdom,17-08-2021
41,Plato Vaughan,Ap #502-453 Non Rd.,06255-18554,Zoerle-Parwijs,South Korea,25-11-2020
42,Veronica Mclean,106-844 Vestibulum. Street,435853,Uyo,Indonesia,01-07-2022
43,Sacha Huff,467-8297 Enim,40927-70942,Dublin,Vietnam,14-05-2022
44,Hilary Stout,Ap #258-7652 Ac Rd.,8843 WD,Gisborne,Belgium,01-06-2022
45,Grant Cortez,467-8297 Enim,832658,Hartford,Australia,06-08-2021
46,Brock Harrison,Ap #325-3140 Ut Avenue,65662-376,Feldkirchen in Kärnten,Germany,16-09-2022
47,Camille Potts,522-8764 Interdum. Street,448656,Seogwipo,Belgium,10-06-2022
48,Castor Harris,467-8297 Enim,26534-51374,Barranca,Australia,05-03-2022
49,Justin Burch,806-9586 Quis Rd.,83477-576,Sokoto,Sweden,06-01-2021
50,Len Valentine,Ap #965-7456 Erat Av.,24238,Hamburg,Canada,16-04-2021
51,Mallory Lopez,191-2916 Nibh. St.,8224,Galway,Vietnam,05-06-2022
52,Chastity William,910-1343 Elementum Av.,63795,Mariquina,South Korea,05-08-2022
53,Murphy Goodman,Ap #132-6063 Pretium Ave,6705,Chimbote,Austria,22-01-2022
54,Carly Miller,497-7514 Erat. Road,4273,Cambridge Bay,Sweden,15-12-2020
55,Diana Parker,380-5802 Sed Rd.,ZP7 5DH,Augsburg,Austria,07-08-2021
56,Yolanda Moran,Ap #719-6171 Vulputate Avenue,88791,Norderstedt,Mexico,11-12-2020
57,Chaney Whitaker,Ap #451-1157 Erat Avenue,184447,Pinkafeld,Italy,03-12-2021
58,Eric Guthrie,Ap #505-3052 Fringilla Av.,27498,Gbongan,Pakistan,28-04-2022
59,Mason Lambert,Ap #256-1358 Nullam St.,47349,Gojal Upper Hunza,Australia,28-02-2022
60,Georgia Mccarty,9132 Interdum. Road,21026,Grand-Reng,Spain,30-05-2022
61,Judah Middleton,199-113 Euismod Av.,866533,Fortaleza,Germany,26-10-2020
62,Griffin Mooney,417-2786 Bibendum Ave,2441 YB,Ghizer,Costa Rica,16-10-2020
63,Ralph Ochoa,Ap #132-6063 Pretium Ave,68427-120,Burin,United Kingdom,17-01-2021
64,Bree Phillips,Ap #968-5957 Quisque Av.,14115,Santa Marina,Austria,20-07-2022
65,Merrill Vinson,Ap #132-6063 Pretium Ave,440140,Calle Larga,Australia,28-08-2022
66,Pearl Kent,710-517 Mauris Av.,48223,Nässjö,Italy,19-04-2021
67,Farrah Bonner,958-9439 Elementum St.,TY2 0EM,Istanbul,Vietnam,06-05-2022
68,Malik Montgomery,Ap #132-6063 Pretium Ave,85714,Cajamarca,Australia,19-08-2021
69,Chaney Ray,4442 Duis Avenue,64757,Stockholm,Nigeria,28-01-2021
70,Edward Whitfield,216-6471 Fusce Rd.,76635,Lambayeque,Poland,29-04-2021
71,Uriel Wilcox,Ap #143-9931 Vitae Road,01815,Assiniboia,Netherlands,29-01-2022
72,Kelsey Herrera,521-1075 Nisi Avenue,44912,Pike Creek,India,11-08-2021
73,Juliet Sutton,Ap #132-6063 Pretium Ave,89-155,Clermont-Ferrand,Russian Federation,05-07-2022
74,Heather Bentley,988-2858 Turpis. Rd.,U7 6GH,Port Harcourt,Vietnam,29-09-2022
75,Courtney Lewis,167-1628 Proin St.,2458,Winnipeg,Sweden,10-07-2021
76,Zane Rivas,Ap #424-8617 Nam Rd.,492741,Huaraz,Belgium,19-03-2022
77,Iris Emerson,Ap #493-1418 Massa. Ave,8968,Zaragoza,Canada,19-01-2021
78,Cameron Blake,937-8092 Donec Road,37681,Saskatoon,Mexico,26-11-2021
79,Chadwick Espinoza,Ap #132-6063 Pretium Ave,47274,Andong,Ireland,28-06-2021
80,Hayden Mason,Ap #132-6063 Pretium Ave,766653,Châteauroux,Indonesia,04-02-2021
81,Rina Frazier,860-3935 Velit. St.,52790-95858,Finspång,Nigeria,24-08-2022
82,Orson Mccullough,7404 Scelerisque Street,8943,Wolfsberg,Poland,09-10-2022
83,Yuli Roberson,Ap #132-6063 Pretium Ave,826235,Palembang,Nigeria,26-03-2022
84,Xavier Ewing,Ap #855-9492 Vulputate Rd.,2513,Łódź,South Korea,13-08-2021
85,Finn Best,Ap #347-6916 Felis. Street,50202,Sicuani,Poland,11-05-2021
86,Ruth Giles,Ap #132-6063 Pretium Ave,1631,Morwell,New Zealand,12-11-2020
87,Alika Olson,Ap #132-6063 Pretium Ave,11-761,Gumi,Turkey,05-08-2021
88,Hilel Flowers,Ap #132-6063 Pretium Ave,11890,Mérida,Australia,30-12-2020
89,Wynne Ortega,6100 Ante. Av.,70606,Bryansk,Chile,24-04-2022
90,Uta Brewer,3770 Aliquam Rd.,805067,Garbsen,Netherlands,30-07-2022
91,Erin Cochran,Ap #132-6063 Pretium Ave,741188,Blenheim,Mexico,25-10-2021
92,Abdul Dickson,1786 Eget Ave,5888,Wrocław,Vietnam,21-08-2022
93,Jacqueline Gillespie,276-9055 Duis Rd.,8879,San Juan del Río,Vietnam,15-05-2021
94,Carl Hahn,Ap #732-9743 Nonummy. Ave,99644-54411,Tulsa,France,15-03-2022
95,Silas Foreman,769-3126 Quis Av.,102865,Ross-on-Wye,Australia,26-06-2021
96,Buffy Gaines,Ap #852-2799 Eu Rd.,918927,Tczew,Russian Federation,22-11-2021
97,Maris Stevens,Ap #132-6063 Pretium Ave,21616,Toruń,Brazil,10-02-2021
98,Demetrius Michael,316-2244 Ultricies Avenue,78653,Chatteris,Poland,18-11-2021
99,Octavius Curry,Ap #132-6063 Pretium Ave,1754,Katsina,New Zealand,11-07-2022
100,Vladimir Luna,Ap #579-1738 Dictum. Avenue,8916,Nieuwegein,Nigeria,10-05-2021
